OBJECT_NAME,OBJECT_ID,EPOCH,MEAN_MOTION,ECCENTRICITY,INCLINATION,RA_OF_ASC_NODE,ARG_OF_PERICENTER,MEAN_ANOMALY,EPHEMERIS_TYPE,CLASSIFICATION_TYPE,NORAD_CAT_ID,ELEMENT_SET_NO,REV_AT_EPOCH,BSTAR,MEAN_MOTION_DOT,MEAN_MOTION_DDOT
BEIDOU-2 IGSO-5 (C10),2011-073A,2026-06-24T15:46:07.226112,1.00272136,.0114223,47.6633,271.4526,222.0346,107.5350,0,U,37948,999,5320,0,-.196E-5,0
LUCH 5A (SDCM/PRN 140),2011-074B,2026-06-24T13:19:21.819360,1.00271915,.0002656,8.7729,73.7008,31.6607,174.1088,0,U,37951,999,5312,0,-.49E-6,0
BEIDOU-2 G5 (C05),2012-008A,2026-06-25T04:19:28.189632,1.00275083,.0008772,3.5944,69.6576,275.7368,51.5000,0,U,38091,999,5244,0,.63E-6,0
BEIDOU-2 M3 (C11),2012-018A,2026-06-23T15:10:21.359424,1.86229600,.00201939,55.7518,304.6576,273.5233,86.2361,0,U,38250,999,9606,0,-.109E-5,0
BEIDOU-2 M4 (C12),2012-018B,2026-06-23T13:32:51.775296,1.86229575,.0011628,55.6516,303.8740,274.1207,85.7373,0,U,38251,999,9606,0,-.108E-5,0
SES-5 (EGNOS/PRN 136),2012-036A,2026-06-24T04:06:48.381120,1.00272305,.00020263,0.0460,316.5083,134.5743,247.9235,0,U,38652,999,4452,0,.41E-6,0
BEIDOU-2 M6 (C14),2012-050B,2026-06-24T21:14:29.424192,1.86231110,.001356,56.5509,62.6397,358.0228,2.0098,0,U,38775,999,9345,0,-.94E-6,0
GSAT-10 (GAGAN/PRN 128),2012-051B,2026-06-24T23:18:19.404288,1.00272205,.0008103,0.0621,259.8021,190.3061,255.6116,0,U,38779,999,5017,0,-.156E-5,0
GPS BIIF-3  (PRN 24),2012-053A,2026-06-23T19:08:29.603904,2.00567625,.01806762,53.5871,143.3285,65.8518,296.0006,0,U,38833,999,9957,0,.54E-6,0
GSAT0103 (GALILEO-FM3),2012-055A,2026-06-23T22:16:25.895136,1.70473530,.00047987,55.8103,101.3605,306.1762,53.7546,0,U,38857,999,8512,0,-.34E-6,0
BEIDOU-2 G6 (C02),2012-059A,2026-06-24T02:46:37.592832,1.00271582,.00097976,4.4398,73.4545,327.8672,356.6455,0,U,38953,999,4997,0,-.171E-5,0
LUCH 5B (SDCM/PRN 125),2012-061A,2026-06-24T22:50:02.688864,1.00272591,.0002438,10.5008,49.8064,137.6896,51.8517,0,U,38977,999,4968,0,-.137E-5,0
COSMOS 2485 (747),2013-019A,2026-06-23T22:46:24.044160,2.13103180,.0023016,65.4235,73.3773,233.5300,126.2899,0,U,39155,999,10242,0,-.68E-6,0
GPS BIIF-4  (PRN 27),2013-023A,2026-06-24T15:53:03.535872,2.00563536,.0141453,54.4981,268.6689,51.0437,310.2431,0,U,39166,999,9603,0,-.56E-6,0
IRNSS-1A,2013-034A,2026-06-18T21:29:26.733984,1.00275723,.00175894,35.7241,63.8469,183.2529,37.3106,0,U,39199,999,4738,0,.51E-6,0
GPS BIIF-5  (PRN 30),2014-008A,2026-06-24T15:55:33.541824,2.00560324,.0084222,53.6557,149.0147,231.3777,127.8455,0,U,39533,999,8983,0,.57E-6,0
ASTRA 5B (EGNOS/PRN 123),2014-011B,2026-06-25T04:09:21.659040,1.00271683,.0002187,0.0553,321.7035,114.1665,283.2524,0,U,39617,999,4474,0,.146E-5,0
COSMOS 2492 (754),2014-012A,2026-06-23T21:47:10.853664,2.13103141,.0010214,65.2933,313.7069,323.0851,36.8355,0,U,39620,999,9538,0,-.82E-6,0
IRNSS-1B,2014-017A,2026-06-22T18:08:03.866784,1.00268591,.00234964,28.9065,240.3095,164.9008,193.0039,0,U,39635,999,4484,0,.117E-5,0
LUCH 5V (SDCM/PRN 141),2014-023A,2026-06-24T02:49:52.281408,1.00272561,.00022853,5.1506,69.6806,46.6072,293.2066,0,U,39727,999,4442,0,-.265E-5,0
GPS BIIF-6  (PRN 06),2014-026A,2026-06-22T22:40:32.154240,2.00560629,.00381306,56.4953,331.2933,326.4275,33.3264,0,U,39741,999,8865,0,-.99E-6,0
COSMOS 2500 (755),2014-032A,2026-06-23T14:35:47.087232,2.13105776,.00076024,65.2280,313.4639,185.3509,174.6327,0,U,40001,999,9359,0,-.81E-6,0
GPS BIIF-7  (PRN 09),2014-045A,2026-06-24T00:48:39.536352,2.00558930,.00336006,55.3575,88.1921,118.2393,242.1018,0,U,40105,999,8621,0,-.63E-6,0
GSAT0201 (GALILEO 5),2014-050A,2026-06-23T21:14:01.866048,1.85520117,.16756065,48.8679,273.1615,179.6526,180.5284,0,U,40128,999,7844,0,-.89E-6,0
GSAT0202 (GALILEO 6),2014-050B,2026-06-23T01:29:41.993376,1.85520676,.16766476,48.8856,272.2808,180.3494,179.5640,0,U,40129,999,8059,0,-.91E-6,0
IRNSS-1C,2014-061A,2026-06-23T21:59:13.968096,1.00268265,.00226241,6.5342,88.8035,3.2397,232.7468,0,U,40269,999,4275,0,-.157E-5,0
GPS BIIF-8  (PRN 03),2014-068A,2026-06-24T21:36:24.159168,2.00576832,.0067208,56.9929,30.6575,70.8868,289.8931,0,U,40294,999,8536,0,-.9E-6,0
COSMOS 2501 (702K),2014-075A,2026-06-24T08:09:00.870624,2.13101398,.0022649,63.6173,190.1245,212.5723,147.3362,0,U,40315,999,9000,0,.105E-5,0
GPS BIIF-9  (PRN 26),2015-013A,2026-06-24T01:01:48.535104,2.00551017,.01097013,53.1675,203.8938,40.1849,320.6852,0,U,40534,999,8196,0,.77E-6,0
GSAT0203 (GALILEO 7),2015-017A,2026-06-22T11:48:33.950304,1.70476233,.00020984,56.7854,341.4508,272.3017,87.6709,0,U,40544,999,6929,0,-.98E-6,0
GSAT0204 (GALILEO 8),2015-017B,2026-06-23T08:01:36.440256,1.70475830,.00020949,56.7911,341.4465,240.9399,119.0360,0,U,40545,999,3235,0,-.98E-6,0
